{
  "type": "FeatureCollection",
  "features": [
    {
      "type": "Feature",
      "properties": {
        "norad_id": 52912,
        "name": "GAOFEN-12 03",
        "group": "resource",
        "lat": 78.41118728067936,
        "lon": -155.5135264474383,
        "alt_km": 622.0930057122405,
        "timestamp": "2025-12-25T16:53:14.311804+00:00",
        "meta_object_name": "GAOFEN-12 03",
        "meta_object_id": "2022-069A",
        "meta_epoch": "2025-12-25T06:46:57.565344",
        "meta_mean_motion": 14.79638312,
        "meta_eccentricity": 0.00018305,
        "meta_inclination": 97.8477,
        "meta_ra_of_asc_node": 246.3418,
        "meta_arg_of_pericenter": 47.9751,
        "meta_mean_anomaly": 312.1616,
        "meta_ephemeris_type": 0,
        "meta_classification_type": "U",
        "meta_norad_cat_id": 52912,
        "meta_element_set_no": 999,
        "meta_rev_at_epoch": 18889,
        "meta_bstar": 0.00016175951,
        "meta_mean_motion_dot": 1.162e-05,
        "meta_mean_motion_ddot": 0,
        "tle_line1": "1 52912U 22069A   25359.28261071  .00001162  00000+0  16176-3 0  9992",
        "tle_line2": "2 52912  97.8477 246.3418 0001830  47.9751 312.1616 14.79638312188894"
      },
      "geometry": {
        "type": "Point",
        "coordinates": [
          -155.5135264474383,
          78.41118728067936
        ]
      }
    },
    {
      "type": "Feature",
      "properties": {
        "norad_id": 54754,
        "name": "SWOT",
        "group": "resource",
        "lat": -39.49610123549991,
        "lon": -100.94711500636365,
        "alt_km": 899.6495075643907,
        "timestamp": "2025-12-25T16:53:14.311814+00:00",
        "meta_object_name": "SWOT",
        "meta_object_id": "2022-173A",
        "meta_epoch": "2025-12-25T05:04:35.932800",
        "meta_mean_motion": 14.00168708,
        "meta_eccentricity": 4.107e-05,
        "meta_inclination": 77.6108,
        "meta_ra_of_asc_node": 270.1547,
        "meta_arg_of_pericenter": 82.0416,
        "meta_mean_anomaly": 278.0782,
        "meta_ephemeris_type": 0,
        "meta_classification_type": "U",
        "meta_norad_cat_id": 54754,
        "meta_element_set_no": 999,
        "meta_rev_at_epoch": 15480,
        "meta_bstar": 7.7390887e-05,
        "meta_mean_motion_dot": 1.12e-06,
        "meta_mean_motion_ddot": 0,
        "tle_line1": "1 54754U 22173A   25359.21152700  .00000112  00000+0  77391-4 0  9996",
        "tle_line2": "2 54754  77.6108 270.1547 0000410  82.0416 278.0782 14.00168708154805"
      },
      "geometry": {
        "type": "Point",
        "coordinates": [
          -100.94711500636365,
          -39.49610123549991
        ]
      }
    },
    {
      "type": "Feature",
      "properties": {
        "norad_id": 57654,
        "name": "GAOFEN-12 04",
        "group": "resource",
        "lat": -73.56527227619495,
        "lon": 67.13241886783744,
        "alt_km": 638.3149593292601,
        "timestamp": "2025-12-25T16:53:14.311824+00:00",
        "meta_object_name": "GAOFEN-12 04",
        "meta_object_id": "2023-123A",
        "meta_epoch": "2025-12-25T07:37:17.520960",
        "meta_mean_motion": 14.797353,
        "meta_eccentricity": 0.0001207,
        "meta_inclination": 97.9128,
        "meta_ra_of_asc_node": 274.8844,
        "meta_arg_of_pericenter": 79.8341,
        "meta_mean_anomaly": 280.3007,
        "meta_ephemeris_type": 0,
        "meta_classification_type": "U",
        "meta_norad_cat_id": 57654,
        "meta_element_set_no": 999,
        "meta_rev_at_epoch": 12691,
        "meta_bstar": 0.0001951322,
        "meta_mean_motion_dot": 1.415e-05,
        "meta_mean_motion_ddot": 0,
        "tle_line1": "1 57654U 23123A   25359.31756390  .00001415  00000+0  19513-3 0  9998",
        "tle_line2": "2 57654  97.9128 274.8844 0001207  79.8341 280.3007 14.79735300126912"
      },
      "geometry": {
        "type": "Point",
        "coordinates": [
          67.13241886783744,
          -73.56527227619495
        ]
      }
    },
    {
      "type": "Feature",
      "properties": {
        "norad_id": 59065,
        "name": "PARS 1",
        "group": "resource",
        "lat": -82.01700133211487,
        "lon": 40.15464352567398,
        "alt_km": 453.59899253408094,
        "timestamp": "2025-12-25T16:53:14.311834+00:00",
        "meta_object_name": "PARS 1",
        "meta_object_id": "2024-039Q",
        "meta_epoch": "2025-12-25T06:21:27.804960",
        "meta_mean_motion": 15.41256236,
        "meta_eccentricity": 0.00115305,
        "meta_inclination": 97.4655,
        "meta_ra_of_asc_node": 330.4662,
        "meta_arg_of_pericenter": 33.8989,
        "meta_mean_anomaly": 326.2992,
        "meta_ephemeris_type": 0,
        "meta_classification_type": "U",
        "meta_norad_cat_id": 59065,
        "meta_element_set_no": 999,
        "meta_rev_at_epoch": 10181,
        "meta_bstar": 0.00031592173,
        "meta_mean_motion_dot": 0.00013086,
        "meta_mean_motion_ddot": 0,
        "tle_line1": "1 59065U 24039Q   25359.26490515  .00013086  00000+0  31592-3 0  9999",
        "tle_line2": "2 59065  97.4655 330.4662 0011530  33.8989 326.2992 15.41256236101816"
      },
      "geometry": {
        "type": "Point",
        "coordinates": [
          40.15464352567398,
          -82.01700133211487
        ]
      }
    },
    {
      "type": "Feature",
      "properties": {
        "norad_id": 59371,
        "name": "RESURS-P 4",
        "group": "resource",
        "lat": -3.7974922147500565,
        "lon": -53.74568948918647,
        "alt_km": 472.7989596883799,
        "timestamp": "2025-12-25T16:53:14.311844+00:00",
        "meta_object_name": "RESURS-P 4",
        "meta_object_id": "2024-061A",
        "meta_epoch": "2025-12-25T07:29:58.602912",
        "meta_mean_motion": 15.32195677,
        "meta_eccentricity": 7.989e-05,
        "meta_inclination": 97.2564,
        "meta_ra_of_asc_node": 305.3864,
        "meta_arg_of_pericenter": 82.8222,
        "meta_mean_anomaly": 277.3111,
        "meta_ephemeris_type": 0,
        "meta_classification_type": "U",
        "meta_norad_cat_id": 59371,
        "meta_element_set_no": 999,
        "meta_rev_at_epoch": 9713,
        "meta_bstar": 0.00013744673,
        "meta_mean_motion_dot": 4.196e-05,
        "meta_mean_motion_ddot": 0,
        "tle_line1": "1 59371U 24061A   25359.31248383  .00004196  00000+0  13745-3 0  9996",
        "tle_line2": "2 59371  97.2564 305.3864 0000798  82.8222 277.3111 15.32195677 97135"
      },
      "geometry": {
        "type": "Point",
        "coordinates": [
          -53.74568948918647,
          -3.7974922147500565
        ]
      }
    },
    {
      "type": "Feature",
      "properties": {
        "norad_id": 59625,
        "name": "LEGION 1",
        "group": "resource",
        "lat": -34.603061886420555,
        "lon": -110.99746158868001,
        "alt_km": 520.58473723316,
        "timestamp": "2025-12-25T16:53:14.311855+00:00",
        "meta_object_name": "LEGION 1",
        "meta_object_id": "2024-081A",
        "meta_epoch": "2025-12-25T04:51:29.263392",
        "meta_mean_motion": 15.16600252,
        "meta_eccentricity": 0.00035998,
        "meta_inclination": 97.5194,
        "meta_ra_of_asc_node": 73.7344,
        "meta_arg_of_pericenter": 259.1642,
        "meta_mean_anomaly": 100.9186,
        "meta_ephemeris_type": 0,
        "meta_classification_type": "U",
        "meta_norad_cat_id": 59625,
        "meta_element_set_no": 999,
        "meta_rev_at_epoch": 9116,
        "meta_bstar": 0.00026598066,
        "meta_mean_motion_dot": 5.13e-05,
        "meta_mean_motion_ddot": 0,
        "tle_line1": "1 59625U 24081A   25359.20242203  .00005130  00000+0  26598-3 0  9992",
        "tle_line2": "2 59625  97.5194  73.7344 0003599 259.1642 100.9186 15.16600252 91167"
      },
      "geometry": {
        "type": "Point",
        "coordinates": [
          -110.99746158868001,
          -34.603061886420555
        ]
      }
    },
    {
      "type": "Feature",
      "properties": {
        "norad_id": 59626,
        "name": "LEGION 2",
        "group": "resource",
        "lat": 34.812080220059215,
        "lon": 69.04938663272672,
        "alt_km": 517.5200193502124,
        "timestamp": "2025-12-25T16:53:14.311864+00:00",
        "meta_object_name": "LEGION 2",
        "meta_object_id": "2024-081B",
        "meta_epoch": "2025-12-25T05:38:53.935008",
        "meta_mean_motion": 15.16613356,
        "meta_eccentricity": 0.00057918,
        "meta_inclination": 97.5197,
        "meta_ra_of_asc_node": 73.8551,
        "meta_arg_of_pericenter": 239.7454,
        "meta_mean_anomaly": 120.3206,
        "meta_ephemeris_type": 0,
        "meta_classification_type": "U",
        "meta_norad_cat_id": 59626,
        "meta_element_set_no": 999,
        "meta_rev_at_epoch": 9117,
        "meta_bstar": 0.00030271434,
        "meta_mean_motion_dot": 5.851e-05,
        "meta_mean_motion_ddot": 0,
        "tle_line1": "1 59626U 24081B   25359.23534647  .00005851  00000+0  30271-3 0  9995",
        "tle_line2": "2 59626  97.5197  73.8551 0005791 239.7454 120.3206 15.16613356 91172"
      },
      "geometry": {
        "type": "Point",
        "coordinates": [
          69.04938663272672,
          34.812080220059215
        ]
      }
    }
  ]
}